CTC1_L_00286016-03
1 10062U 23148KB  26075.70033565  .00000000  00000+0  00000-0 0  9995
2 10062  60.0000 180.0000 0000000   0.0000   0.0000 15.18623435    15
CTC1_L_00286016-04
1 10063U 26212IJ  26075.70033565  .00000000  00000+0  00000-0 0  9991
2 10063  60.0000 180.0000 0000000   0.0000  90.0000 15.18623435    15
CTC1_L_00286017-01
1 10064U 22903YR  26075.70033565  .00000000  00000+0  00000-0 0  9995
2 10064  60.0000 192.0000 0000000   0.0000 192.0000 15.18623435    12
CTC1_L_00286017-02
1 10065U 26478ZS  26075.70033565  .00000000  00000+0  00000-0 0  9997
2 10065  60.0000 192.0000 0000000   0.0000 282.0000 15.18623435    13
CTC1_L_00286017-03
1 10066U 24321W   26075.70033565  .00000000  00000+0  00000-0 0  9993
2 10066  60.0000 192.0000 0000000   0.0000  12.0000 15.18623435    15
CTC1_L_00286017-04
1 10067U 25408HV  26075.70033565  .00000000  00000+0  00000-0 0  9991
2 10067  60.0000 192.0000 0000000   0.0000 102.0000 15.18623435    16
CTC1_L_00286018-01
1 10068U 22163GW  26075.70033565  .00000000  00000+0  00000-0 0  9997
2 10068  60.0000 204.0000 0000000   0.0000 204.0000 15.18623435    14
CTC1_L_00286018-02
1 10069U 24180PV  26075.70033565  .00000000  00000+0  00000-0 0  9999
2 10069  60.0000 204.0000 0000000   0.0000 294.0000 15.18623435    14
CTC1_L_00286018-03
1 10070U 25113OM  26075.70033565  .00000000  00000+0  00000-0 0  9998
2 10070  60.0000 204.0000 0000000   0.0000  24.0000 15.18623435    17
CTC1_L_00286018-04
1 10071U 26052SK  26075.70033565  .00000000  00000+0  00000-0 0  9992
2 10071  60.0000 204.0000 0000000   0.0000 114.0000 15.18623435    18
CTC1_L_00286019-01
1 10072U 25273IW  26075.70033565  .00000000  00000+0  00000-0 0  9997
2 10072  60.0000 216.0000 0000000   0.0000 216.0000 15.18623435    15
CTC1_L_00286019-02
1 10073U 22397SH  26075.70033565  .00000000  00000+0  00000-0 0  9992
2 10073  60.0000 216.0000 0000000   0.0000 306.0000 15.18623435    16
CTC1_L_00286019-03
1 10074U 26498BB  26075.70033565  .00000000  00000+0  00000-0 0  9999
2 10074  60.0000 216.0000 0000000   0.0000  36.0000 15.18623435    17
CTC1_L_00286019-04
1 10075U 22472VL  26075.70033565  .00000000  00000+0  00000-0 0  9998
2 10075  60.0000 216.0000 0000000   0.0000 126.0000 15.18623435    18
CTC1_L_00286020-01
1 10076U 25967HC  26075.70033565  .00000000  00000+0  00000-0 0  9991
2 10076  60.0000 228.0000 0000000   0.0000 228.0000 15.18623435    15
CTC1_L_00286020-02
1 10077U 24207VD  26075.70033565  .00000000  00000+0  00000-0 0  9998
2 10077  60.0000 228.0000 0000000   0.0000 318.0000 15.18623435    16
CTC1_L_00286020-03
1 10078U 26543ZR  26075.70033565  .00000000  00000+0  00000-0 0  9994
2 10078  60.0000 228.0000 0000000   0.0000  48.0000 15.18623435    17
CTC1_L_00286020-04
1 10079U 23431WO  26075.70033565  .00000000  00000+0  00000-0 0  9998
2 10079  60.0000 228.0000 0000000   0.0000 138.0000 15.18623435    18
CTC1_L_00286021-01
1 10080U 26380PY  26075.70033565  .00000000  00000+0  00000-0 0  9996
2 10080  60.0000 240.0000 0000000   0.0000 240.0000 15.18623435    18
CTC1_L_00286021-02
1 10081U 26502LJ  26075.70033565  .00000000  00000+0  00000-0 0  9993
2 10081  60.0000 240.0000 0000000   0.0000 330.0000 15.18623435    19
CTC1_L_00286021-03
1 10082U 25145IO  26075.70033565  .00000000  00000+0  00000-0 0  9996
2 10082  60.0000 240.0000 0000000   0.0000  60.0000 15.18623435    10
CTC1_L_00286021-04
1 10083U 24903EI  26075.70033565  .00000000  00000+0  00000-0 0  9998
2 10083  60.0000 240.0000 0000000   0.0000 150.0000 15.18623435    11
CTC1_L_00286022-01
1 10084U 26369AQ  26075.70033565  .00000000  00000+0  00000-0 0  9997
2 10084  60.0000 252.0000 0000000   0.0000 252.0000 15.18623435    18
CTC1_L_00286022-02
1 10085U 25316NL  26075.70033565  .00000000  00000+0  00000-0 0  9999
2 10085  60.0000 252.0000 0000000   0.0000 342.0000 15.18623435    19
CTC1_L_00286022-03
1 10086U 25093GP  26075.70033565  .00000000  00000+0  00000-0 0  9992
2 10086  60.0000 252.0000 0000000   0.0000  72.0000 15.18623435    10
CTC1_L_00286022-04
1 10087U 26596BS  26075.70033565  .00000000  00000+0  00000-0 0  9992
2 10087  60.0000 252.0000 0000000   0.0000 162.0000 15.18623435    11
CTC1_L_00286023-01
1 10088U 25256RE  26075.70033565  .00000000  00000+0  00000-0 0  9995
2 10088  60.0000 264.0000 0000000   0.0000 264.0000 15.18623435    18
CTC1_L_00286023-02
1 10089U 25289YN  26075.70033565  .00000000  00000+0  00000-0 0  9992
2 10089  60.0000 264.0000 0000000   0.0000 354.0000 15.18623435    19
CTC1_L_00286023-03
1 10090U 26287FG  26075.70033565  .00000000  00000+0  00000-0 0  9993
2 10090  60.0000 264.0000 0000000   0.0000  84.0000 15.18623435    11
CTC1_L_00286023-04
1 10091U 25878OH  26075.70033565  .00000000  00000+0  00000-0 0  9999
2 10091  60.0000 264.0000 0000000   0.0000 174.0000 15.18623435    12
CTC1_L_00286024-01
1 10092U 23799FQ  26075.70033565  .00000000  00000+0  00000-0 0  9990
2 10092  60.0000 276.0000 0000000   0.0000 276.0000 15.18623435    19
CTC1_L_00286024-02
1 10093U 26209ID  26075.70033565  .00000000  00000+0  00000-0 0  9990
2 10093  60.0000 276.0000 0000000   0.0000   6.0000 15.18623435    11
CTC1_L_00286024-03
1 10094U 22169WB  26075.70033565  .00000000  00000+0  00000-0 0  9992
2 10094  60.0000 276.0000 0000000   0.0000  96.0000 15.18623435    11
CTC1_L_00286024-04
1 10095U 25669SY  26075.70033565  .00000000  00000+0  00000-0 0  9991
2 10095  60.0000 276.0000 0000000   0.0000 186.0000 15.18623435    12
CTC1_L_00286025-01
1 10096U 23594IF  26075.70033565  .00000000  00000+0  00000-0 0  9997
2 10096  60.0000 288.0000 0000000   0.0000 288.0000 15.18623435    19
CTC1_L_00286025-02
1 10097U 23147LH  26075.70033565  .00000000  00000+0  00000-0 0  9992
2 10097  60.0000 288.0000 0000000   0.0000  18.0000 15.18623435    11
CTC1_L_00286025-03
1 10098U 26330BJ  26075.70033565  .00000000  00000+0  00000-0 0  9990
2 10098  60.0000 288.0000 0000000   0.0000 108.0000 15.18623435    12
CTC1_L_00286025-04
1 10099U 26660LA  26075.70033565  .00000000  00000+0  00000-0 0  9997
2 10099  60.0000 288.0000 0000000   0.0000 198.0000 15.18623435    12
CTC1_L_00286026-01
1 10100U 24950ZO  26075.70033565  .00000000  00000+0  00000-0 0  9990
2 10100  60.0000 300.0000 0000000   0.0000 300.0000 15.18623435    15
CTC1_L_00286026-02
1 10101U 24133ZU  26075.70033565  .00000000  00000+0  00000-0 0  9994
2 10101  60.0000 300.0000 0000000   0.0000  30.0000 15.18623435    16
CTC1_L_00286026-03
1 10102U 25905IC  26075.70033565  .00000000  00000+0  00000-0 0  9993
2 10102  60.0000 300.0000 0000000   0.0000 120.0000 15.18623435    17
CTC1_L_00286026-04
1 10103U 25389KZ  26075.70033565  .00000000  00000+0  00000-0 0  9990
2 10103  60.0000 300.0000 0000000   0.0000 210.0000 15.18623435    18
CTC1_L_00286027-01
1 10104U 25587LU  26075.70033565  .00000000  00000+0  00000-0 0  9991
2 10104  60.0000 312.0000 0000000   0.0000 312.0000 15.18623435    15
CTC1_L_00286027-02
1 10105U 24695BL  26075.70033565  .00000000  00000+0  00000-0 0  9991
2 10105  60.0000 312.0000 0000000   0.0000  42.0000 15.18623435    16
CTC1_L_00286027-03
1 10106U 24328MN  26075.70033565  .00000000  00000+0  00000-0 0  9995
2 10106  60.0000 312.0000 0000000   0.0000 132.0000 15.18623435    17
CTC1_L_00286027-04
1 10107U 24959VH  26075.70033565  .00000000  00000+0  00000-0 0  9996
2 10107  60.0000 312.0000 0000000   0.0000 222.0000 15.18623435    18
CTC1_L_00286028-01
1 10108U 25249BY  26075.70033565  .00000000  00000+0  00000-0 0  9990
2 10108  60.0000 324.0000 0000000   0.0000 324.0000 15.18623435    15
CTC1_L_00286028-02
1 10109U 24117XQ  26075.70033565  .00000000  00000+0  00000-0 0  9994
2 10109  60.0000 324.0000 0000000   0.0000  54.0000 15.18623435    16
CTC1_L_00286028-03
1 10110U 25122WR  26075.70033565  .00000000  00000+0  00000-0 0  9993
2 10110  60.0000 324.0000 0000000   0.0000 144.0000 15.18623435    18
CTC1_L_00286028-04
1 10111U 26817LL  26075.70033565  .00000000  00000+0  00000-0 0  9996
2 10111  60.0000 324.0000 0000000   0.0000 234.0000 15.18623435    19
CTC1_L_00286029-01
1 10112U 24277NX  26075.70033565  .00000000  00000+0  00000-0 0  9995
2 10112  60.0000 336.0000 0000000   0.0000 336.0000 15.18623435    16
CTC1_L_00286029-02
1 10113U 24089QO  26075.70033565  .00000000  00000+0  00000-0 0  9997
2 10113  60.0000 336.0000 0000000   0.0000  66.0000 15.18623435    17
CTC1_L_00286029-03
1 10114U 24487AA  26075.70033565  .00000000  00000+0  00000-0 0  9990
2 10114  60.0000 336.0000 0000000   0.0000 156.0000 15.18623435    18
CTC1_L_00286029-04
1 10115U 23435YO  26075.70033565  .00000000  00000+0  00000-0 0  9993
2 10115  60.0000 336.0000 0000000   0.0000 246.0000 15.18623435    19
CTC1_L_00286030-01
1 10116U 26175QS  26075.70033565  .00000000  00000+0  00000-0 0  9998
2 10116  60.0000 348.0000 0000000   0.0000 348.0000 15.18623435    16
CTC1_L_00286030-02
1 10117U 26272WU  26075.70033565  .00000000  00000+0  00000-0 0  9997
2 10117  60.0000 348.0000 0000000   0.0000  78.0000 15.18623435    17
CTC1_L_00286030-03
1 10118U 25896DD  26075.70033565  .00000000  00000+0  00000-0 0  9999
2 10118  60.0000 348.0000 0000000   0.0000 168.0000 15.18623435    18
CTC1_L_00286030-04
1 10119U 25749ME  26075.70033565  .00000000  00000+0  00000-0 0  9997
2 10119  60.0000 348.0000 0000000   0.0000 258.0000 15.18623435    19
